SWARM A                 
1 39452U 13067B   26168.47775497  .00008498  00000+0  14594-3 0  9997
2 39452  87.3321  56.1340 0003009  95.0495 265.1110 15.50958386706292
SWARM C                 
1 39453U 13067C   26168.47764212  .00008332  00000+0  14310-3 0  9994
2 39453  87.3321  54.7150 0003002  95.1482 265.0122 15.50956607706258
BRITE-CA1 (TORONTO)     
1 40020U 14033L   26168.30956233  .00000578  00000+0  94721-4 0  9997
2 40020  97.9739 297.2352 0077216 276.6204  82.6219 14.72676789642234
OCO 2                   
1 40059U 14035A   26168.49882971  .00000308  00000+0  78427-4 0  9994
2 40059  98.2017 109.7871 0001503  84.9869 275.1501 14.57111398636098
BRITE-PL2 (HEWELIUSZ)   
1 40119U 14049B   26168.30625382  .00001474  00000+0  14142-3 0  9995
2 40119  97.9098 280.3070 0015287 108.1430 252.1456 14.94593460641460
MMS 1                   
1 40482U 15011A   26168.58334491 -.00000758  00000+0  00000+0 0  9995
2 40482  72.2005 348.7760 8325142 167.4676 338.9027  0.28316329  1381
MMS 2                   
1 40483U 15011B   26168.58334491 -.00000758  00000+0  00000+0 0  9996
2 40483  72.2007 348.7782 8325927 167.4732 338.8915  0.28316304  1380
MMS 3                   
1 40484U 15011C   26168.58334491 -.00000758  00000+0  00000+0 0  9997
2 40484  72.1998 348.7785 8324720 167.4756 338.8754  0.28316309  1384
MMS 4                   
1 40485U 15011D   26168.58334491 -.00000757  00000+0  00000+0 0  9997
2 40485  72.1995 348.7789 8324658 167.4760 338.8747  0.28317364  1385
ASTROSAT                
1 40930U 15052A   26168.02421201  .00001422  00000+0  91470-4 0  9997
2 40930   5.9955 156.5222 0007811  29.1364 330.9199 14.82507303579802
DAMPE                   
1 41173U 15078A   26168.49524847  .00001089  00000+0  39150-4 0  9992
2 41173  97.4548 173.9638 0013808  75.9959 284.2816 15.30786290584599
PISAT                   
1 41784U 16059B   26168.48459061  .00000656  00000+0  11936-3 0  9994
2 41784  97.8179 168.9246 0028408 201.7782 158.2218 14.68983786519789
HXMT (HUIYAN)           
1 42758U 17034A   26168.52902116  .00002022  00000+0  10687-3 0  9990
2 42758  43.0125 181.1377 0030629 149.3559 210.9086 15.18478619497711
FLYING LAPTOP           
1 42831U 17042G   26168.51881318  .00003051  00000+0  24168-3 0  9992
2 42831  97.4690 324.0383 0019628 120.6225 239.6938 15.01148007486502
ZHANGHENG 1-01 (CSES-1) 
1 43194U 18015C   26168.53376740  .00005830  00000+0  26665-3 0  9997
2 43194  97.6871 334.1976 0017051 265.0914  94.8374 15.20814841464693
SALSAT                  
1 46495U 20068K   26168.47256565  .00006216  00000+0  21810-3 0  9996
2 46495  97.8846 171.5545 0008034 306.9379  53.1123 15.29803093315400
IXPE                    
1 49954U 21121A   26168.50003471  .00008128  00000+0  42724-3 0  9991
2 49954   0.2303 315.5180 0007447  81.1679 138.6256 15.10253319  5611
SMILE                   
1 69123U 26109A   26158.38327019 -.00000041  00000+0 -36778-3 0  9994
2 69123  69.9787 209.3069 3310191 288.5544  45.7342  7.54049028  2480
